UNIFORM 1               
1 39767U 14029B   25295.90099787  .00003703  00000+0  35046-3 0  9993
2 39767  97.8102  29.3853 0005781  32.8376 327.3202 14.94246743618762
SOCRATES                
1 39768U 14029C   25295.57166221  .00003850  00000+0  37185-3 0  9994
2 39768  97.8944  42.6768 0007119  56.1599 304.0297 14.93424734618924
RISING 2                
1 39769U 14029D   25295.99144041  .00008634  00000+0  79345-3 0  9996
2 39769  97.6824   4.1112 0003612  34.2676 325.8777 14.95036519618064
EUTELSAT 3B             
1 39773U 14030A   25295.90704182  .00000031  00000+0  00000+0 0  9993
2 39773   0.0684   8.0961 0004383 194.0492 159.0859  1.00272079 41684
COSMOS 2500 [GLONASS-M] 
1 40001U 14032A   25295.59651240 -.00000042  00000+0  00000+0 0  9995
2 40001  65.3709 321.7726 0009283 213.7677 146.2293  2.13106017 88396
KAZEOSAT 2              
1 40010U 14033A   25295.95769503  .00001073  00000+0  13150-3 0  9996
2 40010  97.5571 142.8822 0009423  31.1921 328.9852 14.85044537613742
HODOYOSHI-4             
1 40011U 14033B   25295.95043567  .00002370  00000+0  26759-3 0  9992
2 40011  97.5453 127.3373 0024413  15.2826 344.9122 14.87218500613534
UNISAT-6                
1 40012U 14033C   25295.65715733  .00005841  00000+0  65618-3 0  9994
2 40012  97.7591  88.3053 0047684 130.0943 230.4468 14.86278743610850
DEIMOS-2                
1 40013U 14033D   25295.90559814  .00002463  00000+0  24442-3 0  9996
2 40013  97.6110 173.3810 0002242  67.2712 292.8745 14.92639337602318
BUGSAT-1 (TITA)         
1 40014U 14033E   25295.99035010  .00006939  00000+0  39992-3 0  9991
2 40014  98.0617  10.0481 0028694 269.2100  90.5841 15.12400848619944
HODOYOSHI-3             
1 40015U 14033F   25295.46876866  .00002692  00000+0  32196-3 0  9997
2 40015  97.6192 103.5472 0034537  58.7770 301.6822 14.84539469612345
SAUDISAT 4              
1 40016U 14033G   25295.36449760  .00001677  00000+0  22966-3 0  9992
2 40016  97.7262  85.2979 0046326 126.4810 234.0684 14.79026616610915
APRIZESAT 9             
1 40018U 14033J   25295.88818632  .00001532  00000+0  23451-3 0  9999
2 40018  97.8747  70.4535 0065545 242.7970 116.6549 14.73729070608609
APRIZESAT 10            
1 40019U 14033K   25295.88677820  .00001011  00000+0  16752-3 0  9990
2 40019  97.9365  63.6635 0078382 312.2866  47.1713 14.70456458607370
BRITE-CA1 (TORONTO)     
1 40020U 14033L   25295.86520296  .00001651  00000+0  25890-3 0  9997
2 40020  97.9451  64.7399 0078663 317.3723  42.1396 14.71985947607291
DUCHIFAT-1              
1 40021U 14033M   25295.90278636  .00038225  00000+0  10925-2 0  9990
2 40021  98.0862 322.5978 0006994 188.2517 171.8611 15.35873268619030
NANOSATC-BR1            
1 40024U 14033Q   25295.88852827  .00019753  00000+0  85737-3 0  9999
2 40024  98.0932 303.5979 0002179 310.3741  49.7303 15.22376114617762
QB50P1                  
1 40025U 14033R   25295.91971613  .00013559  00000+0  76900-3 0  9999
2 40025  98.0950 286.3498 0008430 328.4898  31.5825 15.13079559617082
DTUSAT-2                
1 40030U 14033W   25295.88113792  .00011854  00000+0  72238-3 0  9993
2 40030  98.0714 274.5449 0007659 337.5081  22.5810 15.10520513616809
QB50P2                  
1 40032U 14033Y   25295.49663917  .00011651  00000+0  70892-3 0  9990
2 40032  98.0587 273.6066 0005999 263.8865  96.1680 15.10588834616723
PERSEUS-M2              
1 40037U 14033AD  25295.92968310  .00003830  00000+0  36109-3 0  9991
2 40037  97.9676 237.2548 0012557  14.9929 345.1660 14.94357581615335
PERSEUS-M1              
1 40039U 14033AF  25295.78178525  .00004117  00000+0  38739-3 0  9998
2 40039  97.9385 231.5895 0012328  14.2523 345.9042 14.94388046615168
POLYITAN-1              
1 40042U 14033AJ  25295.94102406  .00023112  00000+0  97967-3 0  9999
2 40042  98.1095 296.3826 0006319 248.7148 111.3412 15.23130919617352
TIGRISAT                
1 40043U 14033AK  25295.85985559  .00004111  00000+0  49171-3 0  9990
2 40043  97.7532  86.9945 0051558 132.1668 228.3943 14.83743140610416
LEMUR-1                 
1 40044U 14033AL  25295.91399679  .00004648  00000+0  55485-3 0  9990
2 40044  97.7577  86.6848 0050596 135.4329 225.0972 14.83786475610263
AEROCUBE 6A             
1 40045U 14033AM  25295.90659598  .00008498  00000+0  78292-3 0  9997
2 40045  97.7040 101.2954 0042248  89.1888 271.4173 14.94259762611132
AEROCUBE 6B             
1 40046U 14033AN  25295.92521277  .00009795  00000+0  87389-3 0  9990
2 40046  97.7014 100.6575 0040673  82.0004 278.5829 14.95527979611245
SPOT 7                  
1 40053U 14034A   25295.91356462  .00000873  00000+0  18881-3 0  9999
2 40053  98.0973 359.1453 0001076  97.8106 262.3217 14.60635283602497
CANX-4                  
1 40055U 14034C   25295.59777496  .00001723  00000+0  23186-3 0  9998
2 40055  98.3415 156.7918 0014115  57.3641 302.8930 14.80577396609360
CANX-5                  
1 40056U 14034D   25295.59885686  .00001720  00000+0  23130-3 0  9996
2 40056  98.3418 156.8225 0014113  57.5577 302.6997 14.80592949600176
OCO 2                   
1 40059U 14035A   25295.90152459  .00000987  00000+0  22937-3 0  9998
2 40059  98.2130 235.5381 0001829  79.1074 281.0330 14.57062343601490
GONETS-M 8              
1 40061U 14036A   25295.92039508  .00000009  00000+0 -48424-5 0  9990
2 40061  82.5057  94.9749 0029169 307.1236  52.7179 12.42975567512974
GONETS-M 9              
1 40062U 14036B   25295.95507345  .00000023  00000+0  98520-4 0  9999
2 40062  82.5056  95.0242 0022447 313.8844  46.0382 12.42941672512988
GONETS-M 10             
1 40063U 14036C   25295.93639226  .00000008  00000+0 -12192-4 0  9997
2 40063  82.5059  95.0400 0021091 300.1696  59.7294 12.42937413512774
METEOR-M 2              
1 40069U 14037A   25295.92347096  .00000238  00000+0  12826-3 0  9991
2 40069  98.4847 275.4696 0006072  17.5183 342.6204 14.21356002585610
DX1                     
1 40071U 14037C   25295.95322530  .00003007  00000+0  32771-3 0  9991
2 40071  98.3554 238.9220 0006682 336.5504  23.5406 14.88800121610798
SKYSAT-B                
1 40072U 14037D   25295.55240850  .00002414  00000+0  27603-3 0  9991
2 40072  98.3525 236.5919 0005230 344.9014  15.2044 14.87032688610636
UKUBE-1                 
1 40074U 14037F   25295.92531668  .00014077  00000+0  91311-3 0  9999
2 40074  98.4101 270.4093 0001314 111.5289 248.6077 15.08216655612722
TECHDEMOSAT-1 (TDS-1)   
1 40076U 14037H   25295.47984505  .00011220  00000+0  73109-3 0  9995
2 40076  98.3593 260.3799 0007184   7.3273 352.8056 15.08092829612332
O3B FM3                 
1 40079U 14038A   25295.63584376 -.00000022  00000+0  00000+0 0  9994
2 40079   0.0549 359.1910 0002073 150.8118 210.0157  5.00115538201157
O3B FM7                 
1 40080U 14038B   25291.38422141 -.00000027  00000+0  00000+0 0  9990
2 40080   0.0613   3.1417 0004210 220.4687 136.3604  5.00115467205780
O3B FM6                 
1 40081U 14038C   25295.80885348 -.00000022  00000+0  00000+0 0  9999
2 40081   0.0577   0.2895 0002723 209.4389 150.2628  5.00115674205951
O3B FM8                 
1 40082U 14038D   25295.66234684 -.00000022  00000+0  00000+0 0  9995
2 40082   0.0585   0.8769 0002574 209.2527 149.8622  5.00115912206069
ORBCOMM FM109           
1 40086U 14040A   25295.89664003  .00000903  00000+0  22930-3 0  9996
2 40086  47.0018 133.0539 0001914 218.7830 141.2918 14.58404419599704
NAVSTAR 71 (USA 256)    
1 40105U 14045A   25295.22967096  .00000018  00000+0  00000+0 0  9995
2 40105  55.1962  97.9536 0033314 118.2930 242.0549  2.00569504 81306
ASIASAT 8 (AMOS-7)      
1 40107U 14046A   25295.92732192 -.00000322  00000+0  00000+0 0  9991
2 40107   0.0471  78.4310 0001336 136.2601 256.0663  1.00270031 99775
YAOGAN-20 01A           
1 40109U 14047A   25295.96439892  .00000041  00000+0  14748-3 0  9994
2 40109  63.3808 270.6522 0369315  13.4042 347.6478 13.45405960550522
YAOGAN-20 01B           
1 40110U 14047B   25295.96581025  .00000043  00000+0  14929-3 0  9995
2 40110  63.3795 271.5235 0369182  13.4286 347.6247 13.45404620550360
YAOGAN-20 01C           
1 40111U 14047C   25295.95816100  .00000044  00000+0  15049-3 0  9995
2 40111  63.3800 271.2524 0369251  13.8002 347.2794 13.45415293550375
WORLDVIEW-3 (WV-3)      
1 40115U 14048A   25295.91579907  .00001860  00000+0  22260-3 0  9997
2 40115  97.8665   8.8286 0005348  21.9120 338.2323 14.85319153606692
GAOFEN-2                
1 40118U 14049A   25295.98563656  .00001219  00000+0  16646-3 0  9991
2 40118  98.0461 355.0508 0005571 286.2282  73.8316 14.80444917604132
BRITE-PL2 (HEWELIUSZ)   
1 40119U 14049B   25295.88126436  .00003302  00000+0  32046-3 0  9999
2 40119  97.8982  41.5118 0014552 172.2707 187.8740 14.93279673606012
GSAT0201 (GALILEO 5)    
1 40128U 14050A   25293.02891527 -.00000069  00000+0  00000+0 0  9994
2 40128  49.1381 283.2505 1642820 170.2404 193.3914  1.85519627 73867
GSAT0202 (GALILEO 6)    
1 40129U 14050B   25292.20739736 -.00000067  00000+0  00000+0 0  9995
2 40129  49.1552 282.3666 1643429 170.9672 192.3990  1.85520331 76013
LING QIAO               
1 40136U 14051A   25295.97040618  .00000113  00000+0  60633-4 0  9999
2 40136  98.7002 292.6986 0021459 145.8008 214.4561 14.30211899581095
CHUANGXIN 1-04 (CX-1-04)
1 40137U 14051B   25295.95482089  .00000160  00000+0  78537-4 0  9994
2 40137  98.7001 292.6780 0022905 147.2106 213.0503 14.30331255580638
ASIASAT 6               
1 40141U 14052A   25295.78746501 -.00000352  00000+0  00000+0 0  9992
2 40141   0.0651  78.6159 0000836 143.6136 212.6423  1.00270515 40680
YAOGAN-21               
1 40143U 14053A   25295.98174332  .00009989  00000+0  40983-3 0  9996
2 40143  97.1832 341.4792 0011570 242.2974 117.7091 15.24364208618813
OPTUS 10                
1 40146U 14054A   25294.86701897 -.00000139  00000+0  00000+0 0  9999
2 40146   0.0849 319.5682 0002935 247.0472 292.1007  1.00271138 40645
